[{"OBJECT_NAME":"STARLINK-30186","OBJECT_ID":"2023-107P","EPOCH":"2026-03-09T03:34:26.783904","MEAN_MOTION":15.11062379,"ECCENTRICITY":0.00020628,"INCLINATION":43.0042,"RA_OF_ASC_NODE":340.919,"ARG_OF_PERICENTER":292.4268,"MEAN_ANOMALY":67.6359,"EPHEMERIS_TYPE":0,"CLASSIFICATION_TYPE":"U","NORAD_CAT_ID":57470,"ELEMENT_SET_NO":999,"REV_AT_EPOCH":14504,"BSTAR":0.0016488341,"MEAN_MOTION_DOT":0.00027958,"MEAN_MOTION_DDOT":0},{"OBJECT_NAME":"UNKNOWN","OBJECT_ID":"","EPOCH":"2026-03-07T17:21:07.805664","MEAN_MOTION":15.09455608,"ECCENTRICITY":0.0009057,"INCLINATION":82.8696,"RA_OF_ASC_NODE":177.6495,"ARG_OF_PERICENTER":167.3062,"MEAN_ANOMALY":192.8398,"EPHEMERIS_TYPE":0,"CLASSIFICATION_TYPE":"U","NORAD_CAT_ID":87725,"ELEMENT_SET_NO":999,"REV_AT_EPOCH":64668,"BSTAR":0.0060116,"MEAN_MOTION_DOT":0.00097492,"MEAN_MOTION_DDOT":0}]
